CCSDS_OMM_VERS = 2.0
CREATION_DATE  = 
ORIGINATOR     = 

OBJECT_NAME    = ISS (ZARYA)
OBJECT_ID      = 1998-067A
CENTER_NAME    = EARTH
REF_FRAME      = TEME
TIME_SYSTEM    = UTC
MEAN_ELEMENT_THEORY = SGP/SGP4

EPOCH          = 2026-02-15T19:51:56.197728
MEAN_MOTION    = 15.48632469
ECCENTRICITY   = .0010986
INCLINATION    = 51.6318
RA_OF_ASC_NODE = 180.4216
ARG_OF_PERICENTER = 102.2508
MEAN_ANOMALY   = 257.9711

EPHEMERIS_TYPE = 0
CLASSIFICATION_TYPE = U
NORAD_CAT_ID   = 25544
ELEMENT_SET_NO = 999
REV_AT_EPOCH   = 55294
BSTAR          = .23474601E-3
MEAN_MOTION_DOT = .1236E-3
MEAN_MOTION_DDOT = 0

CCSDS_OMM_VERS = 2.0
CREATION_DATE  = 
ORIGINATOR     = 

OBJECT_NAME    = CSS (TIANHE)
OBJECT_ID      = 2021-035A
CENTER_NAME    = EARTH
REF_FRAME      = TEME
TIME_SYSTEM    = UTC
MEAN_ELEMENT_THEORY = SGP/SGP4

EPOCH          = 2026-02-15T22:50:06.446400
MEAN_MOTION    = 15.59696868
ECCENTRICITY   = .00041233
INCLINATION    = 41.4685
RA_OF_ASC_NODE = 340.3350
ARG_OF_PERICENTER = 109.3123
MEAN_ANOMALY   = 250.8161

EPHEMERIS_TYPE = 0
CLASSIFICATION_TYPE = U
NORAD_CAT_ID   = 48274
ELEMENT_SET_NO = 999
REV_AT_EPOCH   = 27421
BSTAR          = .35720609E-3
MEAN_MOTION_DOT = .29148E-3
MEAN_MOTION_DDOT = 0

CCSDS_OMM_VERS = 2.0
CREATION_DATE  = 
ORIGINATOR     = 

OBJECT_NAME    = ISS (NAUKA)
OBJECT_ID      = 2021-066A
CENTER_NAME    = EARTH
REF_FRAME      = TEME
TIME_SYSTEM    = UTC
MEAN_ELEMENT_THEORY = SGP/SGP4

EPOCH          = 2026-02-15T19:51:56.197728
MEAN_MOTION    = 15.48632469
ECCENTRICITY   = .0010986
INCLINATION    = 51.6318
RA_OF_ASC_NODE = 180.4216
ARG_OF_PERICENTER = 102.2508
MEAN_ANOMALY   = 257.9711

EPHEMERIS_TYPE = 0
CLASSIFICATION_TYPE = U
NORAD_CAT_ID   = 49044
ELEMENT_SET_NO = 999
REV_AT_EPOCH   = 23044
BSTAR          = .23474601E-3
MEAN_MOTION_DOT = .1236E-3
MEAN_MOTION_DDOT = 0

CCSDS_OMM_VERS = 2.0
CREATION_DATE  = 
ORIGINATOR     = 

OBJECT_NAME    = FREGAT DEB
OBJECT_ID      = 2011-037PF
CENTER_NAME    = EARTH
REF_FRAME      = TEME
TIME_SYSTEM    = UTC
MEAN_ELEMENT_THEORY = SGP/SGP4

EPOCH          = 2026-02-15T06:19:59.668320
MEAN_MOTION    = 12.38700451
ECCENTRICITY   = .0938699
INCLINATION    = 51.6533
RA_OF_ASC_NODE = 7.8958
ARG_OF_PERICENTER = 7.8738
MEAN_ANOMALY   = 353.5756

EPHEMERIS_TYPE = 0
CLASSIFICATION_TYPE = U
NORAD_CAT_ID   = 49271
ELEMENT_SET_NO = 999
REV_AT_EPOCH   = 20991
BSTAR          = .69419E-1
MEAN_MOTION_DOT = .43522E-3
MEAN_MOTION_DDOT = 0

CCSDS_OMM_VERS = 2.0
CREATION_DATE  = 
ORIGINATOR     = 

OBJECT_NAME    = CSS (WENTIAN)
OBJECT_ID      = 2022-085A
CENTER_NAME    = EARTH
REF_FRAME      = TEME
TIME_SYSTEM    = UTC
MEAN_ELEMENT_THEORY = SGP/SGP4

EPOCH          = 2026-02-15T22:50:06.446400
MEAN_MOTION    = 15.59696868
ECCENTRICITY   = .00041233
INCLINATION    = 41.4685
RA_OF_ASC_NODE = 340.3350
ARG_OF_PERICENTER = 109.3123
MEAN_ANOMALY   = 250.8161

EPHEMERIS_TYPE = 0
CLASSIFICATION_TYPE = U
NORAD_CAT_ID   = 53239
ELEMENT_SET_NO = 999
REV_AT_EPOCH   = 17384
BSTAR          = .35720609E-3
MEAN_MOTION_DOT = .29148E-3
MEAN_MOTION_DDOT = 0

CCSDS_OMM_VERS = 2.0
CREATION_DATE  = 
ORIGINATOR     = 

OBJECT_NAME    = CSS (MENGTIAN)
OBJECT_ID      = 2022-143A
CENTER_NAME    = EARTH
REF_FRAME      = TEME
TIME_SYSTEM    = UTC
MEAN_ELEMENT_THEORY = SGP/SGP4

EPOCH          = 2026-02-15T22:50:06.446400
MEAN_MOTION    = 15.59696868
ECCENTRICITY   = .00041233
INCLINATION    = 41.4685
RA_OF_ASC_NODE = 340.3350
ARG_OF_PERICENTER = 109.3123
MEAN_ANOMALY   = 250.8161

EPHEMERIS_TYPE = 0
CLASSIFICATION_TYPE = U
NORAD_CAT_ID   = 54216
ELEMENT_SET_NO = 999
REV_AT_EPOCH   = 15864
BSTAR          = .35720609E-3
MEAN_MOTION_DOT = .29148E-3
MEAN_MOTION_DDOT = 0

CCSDS_OMM_VERS = 2.0
CREATION_DATE  = 
ORIGINATOR     = 

OBJECT_NAME    = PROGRESS-MS 31
OBJECT_ID      = 2025-146A
CENTER_NAME    = EARTH
REF_FRAME      = TEME
TIME_SYSTEM    = UTC
MEAN_ELEMENT_THEORY = SGP/SGP4

EPOCH          = 2026-02-15T19:51:56.197728
MEAN_MOTION    = 15.48632469
ECCENTRICITY   = .0010986
INCLINATION    = 51.6318
RA_OF_ASC_NODE = 180.4216
ARG_OF_PERICENTER = 102.2508
MEAN_ANOMALY   = 257.9711

EPHEMERIS_TYPE = 0
CLASSIFICATION_TYPE = U
NORAD_CAT_ID   = 64751
ELEMENT_SET_NO = 999
REV_AT_EPOCH   = 675
BSTAR          = .23474601E-3
MEAN_MOTION_DOT = .1236E-3
MEAN_MOTION_DDOT = 0

CCSDS_OMM_VERS = 2.0
CREATION_DATE  = 
ORIGINATOR     = 

OBJECT_NAME    = TIANZHOU-9
OBJECT_ID      = 2025-149A
CENTER_NAME    = EARTH
REF_FRAME      = TEME
TIME_SYSTEM    = UTC
MEAN_ELEMENT_THEORY = SGP/SGP4

EPOCH          = 2026-02-15T22:50:06.446400
MEAN_MOTION    = 15.59696868
ECCENTRICITY   = .00041233
INCLINATION    = 41.4685
RA_OF_ASC_NODE = 340.3350
ARG_OF_PERICENTER = 109.3123
MEAN_ANOMALY   = 250.8161

EPHEMERIS_TYPE = 0
CLASSIFICATION_TYPE = U
NORAD_CAT_ID   = 64786
ELEMENT_SET_NO = 999
REV_AT_EPOCH   = 25530
BSTAR          = .35720609E-3
MEAN_MOTION_DOT = .29148E-3
MEAN_MOTION_DDOT = 0

CCSDS_OMM_VERS = 2.0
CREATION_DATE  = 
ORIGINATOR     = 

OBJECT_NAME    = DRAGON CRS-33
OBJECT_ID      = 2025-186A
CENTER_NAME    = EARTH
REF_FRAME      = TEME
TIME_SYSTEM    = UTC
MEAN_ELEMENT_THEORY = SGP/SGP4

EPOCH          = 2026-02-15T19:51:56.197728
MEAN_MOTION    = 15.48632469
ECCENTRICITY   = .0010986
INCLINATION    = 51.6318
RA_OF_ASC_NODE = 180.4216
ARG_OF_PERICENTER = 102.2508
MEAN_ANOMALY   = 257.9711

EPHEMERIS_TYPE = 0
CLASSIFICATION_TYPE = U
NORAD_CAT_ID   = 65304
ELEMENT_SET_NO = 999
REV_AT_EPOCH   = 11
BSTAR          = .23474601E-3
MEAN_MOTION_DOT = .1236E-3
MEAN_MOTION_DDOT = 0

CCSDS_OMM_VERS = 2.0
CREATION_DATE  = 
ORIGINATOR     = 

OBJECT_NAME    = PROGRESS-MS 32
OBJECT_ID      = 2025-204A
CENTER_NAME    = EARTH
REF_FRAME      = TEME
TIME_SYSTEM    = UTC
MEAN_ELEMENT_THEORY = SGP/SGP4

EPOCH          = 2026-02-15T19:51:56.197728
MEAN_MOTION    = 15.48632469
ECCENTRICITY   = .0010986
INCLINATION    = 51.6318
RA_OF_ASC_NODE = 180.4216
ARG_OF_PERICENTER = 102.2508
MEAN_ANOMALY   = 257.9711

EPHEMERIS_TYPE = 0
CLASSIFICATION_TYPE = U
NORAD_CAT_ID   = 65586
ELEMENT_SET_NO = 999
REV_AT_EPOCH   = 27
BSTAR          = .23474601E-3
MEAN_MOTION_DOT = .1236E-3
MEAN_MOTION_DDOT = 0

CCSDS_OMM_VERS = 2.0
CREATION_DATE  = 
ORIGINATOR     = 

OBJECT_NAME    = CYGNUS NG-23
OBJECT_ID      = 2025-208A
CENTER_NAME    = EARTH
REF_FRAME      = TEME
TIME_SYSTEM    = UTC
MEAN_ELEMENT_THEORY = SGP/SGP4

EPOCH          = 2026-02-15T19:51:56.197728
MEAN_MOTION    = 15.48632469
ECCENTRICITY   = .0010986
INCLINATION    = 51.6318
RA_OF_ASC_NODE = 180.4216
ARG_OF_PERICENTER = 102.2508
MEAN_ANOMALY   = 257.9711

EPHEMERIS_TYPE = 0
CLASSIFICATION_TYPE = U
NORAD_CAT_ID   = 65616
ELEMENT_SET_NO = 999
REV_AT_EPOCH   = 22
BSTAR          = .23474601E-3
MEAN_MOTION_DOT = .1236E-3
MEAN_MOTION_DDOT = 0

CCSDS_OMM_VERS = 2.0
CREATION_DATE  = 
ORIGINATOR     = 

OBJECT_NAME    = ISS OBJECT XK
OBJECT_ID      = 1998-067XK
CENTER_NAME    = EARTH
REF_FRAME      = TEME
TIME_SYSTEM    = UTC
MEAN_ELEMENT_THEORY = SGP/SGP4

EPOCH          = 2026-02-15T14:05:42.020160
MEAN_MOTION    = 15.88729295
ECCENTRICITY   = .0005713
INCLINATION    = 51.6225
RA_OF_ASC_NODE = 163.7433
ARG_OF_PERICENTER = 330.5427
MEAN_ANOMALY   = 29.5256

EPHEMERIS_TYPE = 0
CLASSIFICATION_TYPE = U
NORAD_CAT_ID   = 65731
ELEMENT_SET_NO = 999
REV_AT_EPOCH   = 2336
BSTAR          = .12486E-2
MEAN_MOTION_DOT = .375226E-2
MEAN_MOTION_DDOT = 0

