ISS (ZARYA)             
1 25544U 98067A   26046.82773377  .00012360  00000+0  23475-3 0  9997
2 25544  51.6318 180.4216 0010986 102.2508 257.9711 15.48632469552945
CSS (TIANHE)            
1 48274U 21035A   26046.95146350  .00029148  00000+0  35721-3 0  9991
2 48274  41.4685 340.3350 0004123 109.3123 250.8161 15.59696868274214
ISS (NAUKA)             
1 49044U 21066A   26046.82773377  .00012360  00000+0  23475-3 0  9993
2 49044  51.6318 180.4216 0010986 102.2508 257.9711 15.48632469230444
FREGAT DEB              
1 49271U 11037PF  26046.26388505  .00043522  00000+0  69419-1 0  9995
2 49271  51.6533   7.8958 0938699   7.8738 353.5756 12.38700451209918
CSS (WENTIAN)           
1 53239U 22085A   26046.95146350  .00029148  00000+0  35721-3 0  9994
2 53239  41.4685 340.3350 0004123 109.3123 250.8161 15.59696868173848
CSS (MENGTIAN)          
1 54216U 22143A   26046.95146350  .00029148  00000+0  35721-3 0  9995
2 54216  41.4685 340.3350 0004123 109.3123 250.8161 15.59696868158645
PROGRESS-MS 31          
1 64751U 25146A   26046.82773377  .00012360  00000+0  23475-3 0  9998
2 64751  51.6318 180.4216 0010986 102.2508 257.9711 15.48632469  6751
TIANZHOU-9              
1 64786U 25149A   26046.95146350  .00029148  00000+0  35721-3 0  9997
2 64786  41.4685 340.3350 0004123 109.3123 250.8161 15.59696868255309
DRAGON CRS-33           
1 65304U 25186A   26046.82773377  .00012360  00000+0  23475-3 0  9997
2 65304  51.6318 180.4216 0010986 102.2508 257.9711 15.48632469   110
PROGRESS-MS 32          
1 65586U 25204A   26046.82773377  .00012360  00000+0  23475-3 0  9990
2 65586  51.6318 180.4216 0010986 102.2508 257.9711 15.48632469   279
CYGNUS NG-23            
1 65616U 25208A   26046.82773377  .00012360  00000+0  23475-3 0  9998
2 65616  51.6318 180.4216 0010986 102.2508 257.9711 15.48632469   228
ISS OBJECT XK           
1 65731U 98067XK  26046.58729190  .00375226  00000+0  12486-2 0  9998
2 65731  51.6225 163.7433 0005713 330.5427  29.5256 15.88729295 23361
